{
"type": "FeatureCollection",
"name": "catchment",
"crs": { "type": "name", "properties": { "name": "urn:ogc:def:crs:OGC:1.3:CRS84" } },
"features": [
{ "type": "Feature", "properties": { "gauge_id": "15007" }, "geometry": { "type": "Polygon", "coordinates": [ [ [ 76.86910772, 8.80869177 ], [ 76.86949741, 8.80848152 ], [ 76.87853604, 8.80058574 ], [ 76.8858382, 8.80166504 ], [ 76.88711488, 8.81064691 ], [ 76.8871958, 8.8109227 ], [ 76.88735182, 8.81116408 ], [ 76.89544949, 8.82043363 ], [ 76.89566957, 8.82062182 ], [ 76.89593434, 8.82073908 ], [ 76.90172608, 8.8223519 ], [ 76.90556486, 8.82519834 ], [ 76.90589228, 8.82535843 ], [ 76.91005946, 8.82651859 ], [ 76.91468624, 8.82994899 ], [ 76.91570332, 8.83360158 ], [ 76.91584692, 8.83390605 ], [ 76.91608341, 8.83414562 ], [ 76.916386, 8.83429313 ], [ 76.91672039, 8.83433189 ], [ 76.9283113, 8.83370832 ], [ 76.9286194, 8.83364201 ], [ 76.92889156, 8.83348311 ], [ 76.92910075, 8.8332474 ], [ 76.9292262, 8.8329583 ], [ 76.93085477, 8.82661126 ], [ 76.93984145, 8.8254241 ], [ 76.94009561, 8.82535558 ], [ 76.94032307, 8.82522312 ], [ 76.94538379, 8.82130094 ], [ 76.95599151, 8.8223669 ], [ 76.95967694, 8.82522312 ], [ 76.96004093, 8.82540132 ], [ 76.96426147, 8.82648446 ], [ 76.96908346, 8.83022156 ], [ 76.96937247, 8.83037735 ], [ 76.96969635, 8.83043115 ], [ 76.9700202, 8.83037715 ], [ 76.97030911, 8.83022118 ], [ 76.97053193, 8.82998005 ], [ 76.97066465, 8.82967974 ], [ 76.97231779, 8.82323853 ], [ 76.97522312, 8.81948973 ], [ 76.97540132, 8.81912574 ], [ 76.97577206, 8.81768113 ], [ 76.99366987, 8.81801237 ], [ 77.0052025, 8.82952118 ], [ 77.00546087, 8.82970737 ], [ 77.00576467, 8.82980289 ], [ 77.01028721, 8.83046197 ], [ 77.01353759, 8.8336896 ], [ 77.01379531, 8.83387459 ], [ 77.014098, 8.83396956 ], [ 77.01652246, 8.83432288 ], [ 77.01681429, 8.83432237 ], [ 77.01709354, 8.83423764 ], [ 77.01733644, 8.8340759 ], [ 77.0175223, 8.83385091 ], [ 77.0176353, 8.83358185 ], [ 77.01833902, 8.83083902 ], [ 77.02108185, 8.8301353 ], [ 77.02136357, 8.83001452 ], [ 77.02159547, 8.82981408 ], [ 77.02175577, 8.82955281 ], [ 77.0218294, 8.82925527 ], [ 77.02242798, 8.82252577 ], [ 77.0290192, 8.8208342 ], [ 77.02931976, 8.82070132 ], [ 77.02956102, 8.82047818 ], [ 77.03355645, 8.81532308 ], [ 77.03368891, 8.81509562 ], [ 77.03375743, 8.81484147 ], [ 77.03497787, 8.80560423 ], [ 77.03987425, 8.80152075 ], [ 77.04924358, 8.80028304 ], [ 77.04952805, 8.80020128 ], [ 77.04977612, 8.80003983 ], [ 77.04996606, 8.79981284 ], [ 77.05008124, 8.79954018 ], [ 77.05169537, 8.79324938 ], [ 77.07309754, 8.79209794 ], [ 77.07339285, 8.79203649 ], [ 77.0736564, 8.79188979 ], [ 77.07858751, 8.78806806 ], [ 77.0808812, 8.78894808 ], [ 77.0848129, 8.79199524 ], [ 77.08511801, 8.79215639 ], [ 77.08545973, 8.79220424 ], [ 77.08579738, 8.7921331 ], [ 77.08609074, 8.79195144 ], [ 77.09404105, 8.78486737 ], [ 77.10008861, 8.7843294 ], [ 77.10041055, 8.78424517 ], [ 77.10068704, 8.78405995 ], [ 77.10088743, 8.78379427 ], [ 77.10098955, 8.78347754 ], [ 77.10129516, 8.78138051 ], [ 77.10868825, 8.77396377 ], [ 77.10887416, 8.77370555 ], [ 77.10896956, 8.773402 ], [ 77.10962864, 8.76887946 ], [ 77.11285626, 8.76562907 ], [ 77.11304125, 8.76537135 ], [ 77.11313622, 8.76506866 ], [ 77.1133766, 8.7634192 ], [ 77.1189241, 8.7628778 ], [ 77.11918311, 8.76281696 ], [ 77.1194169, 8.76268998 ], [ 77.12328579, 8.75986335 ], [ 77.12743513, 8.75867736 ], [ 77.12775024, 8.75852331 ], [ 77.13161913, 8.75569668 ], [ 77.13576846, 8.75451069 ], [ 77.13614908, 8.75430444 ], [ 77.14416102, 8.74735138 ], [ 77.14826846, 8.74617736 ], [ 77.14858357, 8.74602331 ], [ 77.1523545, 8.74326825 ], [ 77.17840463, 8.74198899 ], [ 77.17873888, 8.74191381 ], [ 77.17902814, 8.74173023 ], [ 77.17923846, 8.74145979 ], [ 77.17934515, 8.74113422 ], [ 77.1808315, 8.7309222 ], [ 77.18360828, 8.73012813 ], [ 77.18391889, 8.7299773 ], [ 77.18415969, 8.72972982 ], [ 77.18430196, 8.72941519 ], [ 77.18500569, 8.72667235 ], [ 77.18762624, 8.726 ], [ 77.19166667, 8.726 ], [ 77.19197569, 8.72595106 ], [ 77.19225446, 8.72580902 ], [ 77.19247569, 8.72558779 ], [ 77.19261773, 8.72530902 ], [ 77.19266667, 8.725 ], [ 77.19266667, 8.72090581 ], [ 77.19296197, 8.71887946 ], [ 77.1961896, 8.71562907 ], [ 77.19637459, 8.71537135 ], [ 77.19646956, 8.71506866 ], [ 77.19672685, 8.71330312 ], [ 77.19954019, 8.71258124 ], [ 77.19981284, 8.71246606 ], [ 77.20003983, 8.71227612 ], [ 77.20020128, 8.71202805 ], [ 77.20028304, 8.71174358 ], [ 77.20152328, 8.70235511 ], [ 77.20438979, 8.69865639 ], [ 77.20453912, 8.69838571 ], [ 77.20459864, 8.69808235 ], [ 77.20516593, 8.68337186 ], [ 77.20513003, 8.68306511 ], [ 77.20500223, 8.68278393 ], [ 77.20479473, 8.68255517 ], [ 77.20452733, 8.68240063 ], [ 77.20422551, 8.68233506 ], [ 77.20391809, 8.68236472 ], [ 77.2017076, 8.68293201 ], [ 77.20148597, 8.68301807 ], [ 77.20129092, 8.68315401 ], [ 77.19347724, 8.69011634 ], [ 77.16857796, 8.69123496 ], [ 77.16827798, 8.6912953 ], [ 77.16801028, 8.69144352 ], [ 77.16460157, 8.69408516 ], [ 77.15997787, 8.6902291 ], [ 77.15875743, 8.68099186 ], [ 77.15866836, 8.68069174 ], [ 77.15849085, 8.68043388 ], [ 77.14137998, 8.66243292 ], [ 77.14107591, 8.66221469 ], [ 77.1407129, 8.66212355 ], [ 77.12014439, 8.66093438 ], [ 77.1197904, 8.66097761 ], [ 77.11947409, 8.6611423 ], [ 77.11421453, 8.66521859 ], [ 77.11192085, 8.6660986 ], [ 77.10698974, 8.66227688 ], [ 77.10662574, 8.66209868 ], [ 77.10240519, 8.66101554 ], [ 77.09865639, 8.65811021 ], [ 77.09840918, 8.65796975 ], [ 77.09813242, 8.65790455 ], [ 77.08502578, 8.6567387 ], [ 77.08340235, 8.65041264 ], [ 77.08328157, 8.65013094 ], [ 77.08308113, 8.64989905 ], [ 77.08281987, 8.64973877 ], [ 77.08252234, 8.64966514 ], [ 77.0750886, 8.64900393 ], [ 77.07473966, 8.64903448 ], [ 77.07442266, 8.64918349 ], [ 77.0741765, 8.64943268 ], [ 77.07403137, 8.64975148 ], [ 77.07332764, 8.65249432 ], [ 77.0683743, 8.65376533 ], [ 77.06815265, 8.65385139 ], [ 77.06795758, 8.65398734 ], [ 77.06005993, 8.66102449 ], [ 77.05587426, 8.66209868 ], [ 77.05551027, 8.66227688 ], [ 77.05176148, 8.66518221 ], [ 77.04999997, 8.66563427 ], [ 77.04750569, 8.66499431 ], [ 77.04684012, 8.6624002 ], [ 77.04716482, 8.65634304 ], [ 77.0510629, 8.65241769 ], [ 77.0512472, 8.65216137 ], [ 77.05134242, 8.65186037 ], [ 77.05133906, 8.65154469 ], [ 77.05062664, 8.64737362 ], [ 77.05052858, 8.6470815 ], [ 77.05034624, 8.6468331 ], [ 77.04479645, 8.64131111 ], [ 77.04453847, 8.64112563 ], [ 77.04423533, 8.64103044 ], [ 77.03971279, 8.64037136 ], [ 77.03646241, 8.63714374 ], [ 77.03620469, 8.63695875 ], [ 77.035902, 8.63686378 ], [ 77.03347754, 8.63651045 ], [ 77.03324472, 8.63650393 ], [ 77.02686757, 8.63707122 ], [ 77.02659081, 8.63713643 ], [ 77.02634359, 8.63727689 ], [ 77.02118849, 8.64127232 ], [ 77.02096535, 8.64151359 ], [ 77.02083246, 8.64181416 ], [ 77.019161, 8.64832766 ], [ 77.01420764, 8.64959867 ], [ 77.01384361, 8.64977688 ], [ 77.01016307, 8.6526293 ], [ 76.9977009, 8.65373788 ], [ 76.99742415, 8.65380308 ], [ 76.99717693, 8.65394354 ], [ 76.99342815, 8.65684888 ], [ 76.9892076, 8.65793201 ], [ 76.98884361, 8.65811021 ], [ 76.98513365, 8.66098543 ], [ 76.97869033, 8.66201163 ], [ 76.9736564, 8.65811021 ], [ 76.9732924, 8.65793201 ], [ 76.97108191, 8.65736472 ], [ 76.97074472, 8.65733726 ], [ 76.96436757, 8.65790455 ], [ 76.96404985, 8.65798689 ], [ 76.96377591, 8.65816766 ], [ 76.95176371, 8.66931638 ], [ 76.94242309, 8.67055029 ], [ 76.94213862, 8.67063205 ], [ 76.94189055, 8.6707935 ], [ 76.94170061, 8.6710205 ], [ 76.94158543, 8.67129315 ], [ 76.93999431, 8.67749432 ], [ 76.93504097, 8.67876533 ], [ 76.93467693, 8.67894354 ], [ 76.93092815, 8.68184888 ], [ 76.9267076, 8.68293201 ], [ 76.92634361, 8.68311021 ], [ 76.92259481, 8.68601554 ], [ 76.91837426, 8.68709868 ], [ 76.91801025, 8.68727689 ], [ 76.91285516, 8.69127232 ], [ 76.91263202, 8.69151357 ], [ 76.91249914, 8.69181413 ], [ 76.9110202, 8.69757665 ], [ 76.90669176, 8.7027669 ], [ 76.89870908, 8.69565401 ], [ 76.89840203, 8.69546698 ], [ 76.89544488, 8.69433241 ], [ 76.89511113, 8.69426635 ], [ 76.89477454, 8.69431601 ], [ 76.89447409, 8.69447564 ], [ 76.88926147, 8.69851554 ], [ 76.88504093, 8.69959868 ], [ 76.88467694, 8.69977688 ], [ 76.88092815, 8.70268221 ], [ 76.8798867, 8.70294948 ], [ 76.87956799, 8.7017076 ], [ 76.87938979, 8.70134361 ], [ 76.87757349, 8.699 ], [ 76.875, 8.699 ], [ 76.87083333, 8.699 ], [ 76.87052431, 8.69904894 ], [ 76.87024554, 8.69919098 ], [ 76.87002431, 8.69941221 ], [ 76.86988227, 8.69969098 ], [ 76.86983333, 8.7 ], [ 76.86983333, 8.70316667 ], [ 76.86666667, 8.70316667 ], [ 76.8625, 8.70316667 ], [ 76.85833333, 8.70316667 ], [ 76.85802431, 8.70321561 ], [ 76.85774554, 8.70335765 ], [ 76.85752431, 8.70357888 ], [ 76.85738227, 8.70385765 ], [ 76.85733333, 8.70416667 ], [ 76.85733333, 8.70733333 ], [ 76.85416667, 8.70733333 ], [ 76.85, 8.70733333 ], [ 76.84969098, 8.70738227 ], [ 76.84941221, 8.70752431 ], [ 76.84919098, 8.70774554 ], [ 76.84904894, 8.70802431 ], [ 76.849, 8.70833333 ], [ 76.849, 8.7115 ], [ 76.84583333, 8.7115 ], [ 76.84166667, 8.7115 ], [ 76.84135765, 8.71154894 ], [ 76.84107888, 8.71169098 ], [ 76.84085765, 8.71191221 ], [ 76.84071561, 8.71219098 ], [ 76.84066667, 8.7125 ], [ 76.84066667, 8.71666667 ], [ 76.84066667, 8.71983333 ], [ 76.8375, 8.71983333 ], [ 76.83719098, 8.71988227 ], [ 76.83691221, 8.72002431 ], [ 76.83669098, 8.72024554 ], [ 76.83654894, 8.72052431 ], [ 76.8365, 8.72083333 ], [ 76.8365, 8.725 ], [ 76.8365, 8.72916667 ], [ 76.8365, 8.73233333 ], [ 76.83333333, 8.73233333 ], [ 76.83302431, 8.73238227 ], [ 76.83274554, 8.73252431 ], [ 76.83252431, 8.73274554 ], [ 76.83238227, 8.73302431 ], [ 76.83233333, 8.73333333 ], [ 76.83233333, 8.7375 ], [ 76.83233333, 8.74066667 ], [ 76.82916667, 8.74066667 ], [ 76.82885765, 8.74071561 ], [ 76.82857888, 8.74085765 ], [ 76.82835765, 8.74107888 ], [ 76.82821561, 8.74135765 ], [ 76.82816667, 8.74166667 ], [ 76.82816667, 8.74583333 ], [ 76.82816667, 8.74711174 ], [ 76.82875735, 8.75434651 ], [ 76.82481015, 8.75974981 ], [ 76.82469187, 8.75996161 ], [ 76.82462807, 8.76019566 ], [ 76.82333533, 8.76907777 ], [ 76.81631716, 8.77108443 ], [ 76.81602823, 8.77122002 ], [ 76.81579673, 8.77143973 ], [ 76.81566667, 8.771683 ], [ 76.81566667, 8.77240403 ], [ 76.81578458, 8.77263578 ], [ 76.81926185, 8.7773959 ], [ 76.81966513, 8.78016667 ], [ 76.81983333, 8.78016667 ], [ 76.81983333, 8.78132235 ], [ 76.82046141, 8.78563767 ], [ 76.82052521, 8.78587171 ], [ 76.82064348, 8.78608351 ], [ 76.82320008, 8.78958333 ], [ 76.82064348, 8.79308316 ], [ 76.82051654, 8.79331692 ], [ 76.82045571, 8.79357587 ], [ 76.81983806, 8.79990284 ], [ 76.81986472, 8.80024858 ], [ 76.82043201, 8.80245907 ], [ 76.82063262, 8.80285094 ], [ 76.82256377, 8.80516667 ], [ 76.824, 8.80516667 ], [ 76.824, 8.80688891 ], [ 76.82523501, 8.80836987 ], [ 76.82544113, 8.80855664 ], [ 76.82569072, 8.80867941 ], [ 76.82596447, 8.80872868 ], [ 76.8416437, 8.80933333 ], [ 76.84166667, 8.80933333 ], [ 76.85316667, 8.80933333 ], [ 76.85316667, 8.8097777 ], [ 76.85663653, 8.80991151 ], [ 76.85736473, 8.81274861 ], [ 76.85750987, 8.81306737 ], [ 76.85775603, 8.81331653 ], [ 76.85807301, 8.81346552 ], [ 76.85842193, 8.81349607 ], [ 76.86585568, 8.81283486 ], [ 76.86615321, 8.81276123 ], [ 76.86641447, 8.81260095 ], [ 76.86661491, 8.81236906 ], [ 76.86673569, 8.81208736 ], [ 76.86749163, 8.80914169 ], [ 76.86910772, 8.80869177 ] ] ] } }
]
}
